STARLINK-30130          
1 56697U 23067K   26067.97846141 -.00000248  00000+0  45743-6 0  9995
2 56697  43.0019 274.8532 0002189 263.0588  97.0015 15.26744788155336
FLOCK 4G-29             
1 62642U 25009AK  26068.81464037  .00011147  00000+0  41831-3 0  9994
2 62642  97.4058 151.3683 0001366 288.0502  72.0588 15.27382318 63721
